{
    "links": {
        "self": "http://www.neowsapp.com/rest/v1/neo/3170210?api_key=iIulBulltgU6a56xZRHN4H3l9WmuAYTsLGpBGhQ2"
    },
    "id": "3170210",
    "neo_reference_id": "3170210",
    "name": "(2003 YJ136)",
    "designation": "2003 YJ136",
    "nasa_jpl_url": "http://ssd.jpl.nasa.gov/sbdb.cgi?sstr=3170210",
    "absolute_magnitude_h": 20.4,
    "estimated_diameter": {
        "kilometers": {
            "estimated_diameter_min": 0.2210828104,
            "estimated_diameter_max": 0.4943561926
        },
        "meters": {
            "estimated_diameter_min": 221.0828103591,
            "estimated_diameter_max": 494.3561926196
        },
        "miles": {
            "estimated_diameter_min": 0.137374447,
            "estimated_diameter_max": 0.3071786018
        },
        "feet": {
            "estimated_diameter_min": 725.3373275385,
            "estimated_diameter_max": 1621.9035709942
        }
    },
    "is_potentially_hazardous_asteroid": false,
    "close_approach_data": [
        {
            "close_approach_date": "2004-01-08",
            "close_approach_date_full": "2004-Jan-08 00:00",
            "epoch_date_close_approach": 1073520000000,
            "relative_velocity": {
                "kilometers_per_second": "14.2781310918",
                "kilometers_per_hour": "51401.2719304508",
                "miles_per_hour": "31938.7514392293"
            },
            "miss_distance": {
                "astronomical": "0.3423613437",
                "lunar": "133.1785626993",
                "kilometers": "51216527.787857919",
                "miles": "31824474.6468765222"
            },
            "orbiting_body": "Earth"
        }
    ],
    "orbital_data": {
        "orbit_id": "9",
        "orbit_determination_date": "2017-04-06 09:13:20",
        "first_observation_date": "2003-12-29",
        "last_observation_date": "2004-01-19",
        "data_arc_in_days": 21,
        "observations_used": 30,
        "orbit_uncertainty": "7",
        "minimum_orbit_intersection": ".31703",
        "jupiter_tisserand_invariant": "3.480",
        "epoch_osculation": "2459000.5",
        "eccentricity": ".3944598264600904",
        "semi_major_axis": "2.141474731792964",
        "inclination": "26.98933941844411",
        "ascending_node_longitude": "288.1830161005965",
        "orbital_period": "1144.637205961465",
        "perihelion_distance": "1.296748980721242",
        "perihelion_argument": "170.5895252967122",
        "aphelion_distance": "2.986200482864685",
        "perihelion_time": "2458719.452831471569",
        "mean_anomaly": "88.39218238170855",
        "mean_motion": ".314510133101614",
        "equinox": "J2000",
        "orbit_class": {
            "orbit_class_type": "AMO",
            "orbit_class_description": "Near-Earth asteroid orbits similar to that of 1221 Amor",
            "orbit_class_range": "1.017 AU < q (perihelion) < 1.3 AU"
        }
    },
    "is_sentry_object": false
}